{"type": "FeatureCollection", "features": [ {"type": "Feature", "properties": {"norad_id": 66475, "name": "STARLINK-35538", "group": "last-30-days", "lat": -9.663102849855877, "lon": -84.29653798035379, "alt_km": 415.2870718082004, "timestamp": "2025-12-10T07:43:53.548407+00:00", "meta": {"OBJECT_NAME": "STARLINK-35538", "OBJECT_ID": "2025-262V", "EPOCH": "2025-12-09T18:31:52.681728", "MEAN_MOTION": 15.50621221, "ECCENTRICITY": 0.0001445, "INCLINATION": 43.0003, "RA_OF_ASC_NODE": 88.3936, "ARG_OF_PERICENTER": 273.5601, "MEAN_ANOMALY": 86.5094, "EPHEMERIS_TYPE": 0, "CLASSIFICATION_TYPE": "U", "NORAD_CAT_ID": 66475, "ELEMENT_SET_NO": 999, "REV_AT_EPOCH": 510, "BSTAR": 0.0023305, "MEAN_MOTION_DOT": 0.00139042, "MEAN_MOTION_DDOT": 0}, "tle": {"line1": "1 66475U 25262V   25343.77213752  .00139042  00000+0  23305-2 0  9999", "line2": "2 66475  43.0003  88.3936 0001445 273.5601  86.5094 15.50621221  5108"}}, "geometry": {"type": "Point", "coordinates": [-84.29653798035379, -9.663102849855877]}}, {"type": "Feature", "properties": {"norad_id": 66476, "name": "STARLINK-35372", "group": "last-30-days", "lat": -10.884209796834787, "lon": -82.9218167133908, "alt_km": 415.5879649295857, "timestamp": "2025-12-10T07:43:53.548417+00:00", "meta": {"OBJECT_NAME": "STARLINK-35372", "OBJECT_ID": "2025-262W", "EPOCH": "2025-12-09T18:31:23.042208", "MEAN_MOTION": 15.50602301, "ECCENTRICITY": 0.0001427, "INCLINATION": 43.0003, "RA_OF_ASC_NODE": 88.3902, "ARG_OF_PERICENTER": 272.5398, "MEAN_ANOMALY": 87.5299, "EPHEMERIS_TYPE": 0, "CLASSIFICATION_TYPE": "U", "NORAD_CAT_ID": 66476, "ELEMENT_SET_NO": 999, "REV_AT_EPOCH": 499, "BSTAR": 0.0014968, "MEAN_MOTION_DOT": 0.00088544, "MEAN_MOTION_DDOT": 0}, "tle": {"line1": "1 66476U 25262W   25343.77179447  .00088544  00000+0  14968-2 0  9997", "line2": "2 66476  43.0003  88.3902 0001427 272.5398  87.5299 15.50602301  4996"}}, "geometry": {"type": "Point", "coordinates": [-82.9218167133908, -10.884209796834787]}}, {"type": "Feature", "properties": {"norad_id": 66477, "name": "STARLINK-35354", "group": "last-30-days", "lat": -13.477322423100166, "lon": -79.93786609986786, "alt_km": 415.3418393528609, "timestamp": "2025-12-10T07:43:53.548427+00:00", "meta": {"OBJECT_NAME": "STARLINK-35354", "OBJECT_ID": "2025-262X", "EPOCH": "2025-12-09T16:57:38.372832", "MEAN_MOTION": 15.50612558, "ECCENTRICITY": 0.0001281, "INCLINATION": 43.0007, "RA_OF_ASC_NODE": 88.7605, "ARG_OF_PERICENTER": 244.4976, "MEAN_ANOMALY": 115.5752, "EPHEMERIS_TYPE": 0, "CLASSIFICATION_TYPE": "U", "NORAD_CAT_ID": 66477, "ELEMENT_SET_NO": 999, "REV_AT_EPOCH": 509, "BSTAR": 0.001749, "MEAN_MOTION_DOT": 0.00103756, "MEAN_MOTION_DDOT": 0}, "tle": {"line1": "1 66477U 25262X   25343.70669413  .00103756  00000+0  17490-2 0  9994", "line2": "2 66477  43.0007  88.7605 0001281 244.4976 115.5752 15.50612558  5096"}}, "geometry": {"type": "Point", "coordinates": [-79.93786609986786, -13.477322423100166]}}, {"type": "Feature", "properties": {"norad_id": 66478, "name": "STARLINK-35283", "group": "last-30-days", "lat": -14.740814415414675, "lon": -78.44583619202592, "alt_km": 415.79375474790686, "timestamp": "2025-12-10T07:43:53.548437+00:00", "meta": {"OBJECT_NAME": "STARLINK-35283", "OBJECT_ID": "2025-262Y", "EPOCH": "2025-12-09T16:57:08.842176", "MEAN_MOTION": 15.50609402, "ECCENTRICITY": 0.0001509, "INCLINATION": 43.001, "RA_OF_ASC_NODE": 88.7576, "ARG_OF_PERICENTER": 278.6831, "MEAN_ANOMALY": 81.3858, "EPHEMERIS_TYPE": 0, "CLASSIFICATION_TYPE": "U", "NORAD_CAT_ID": 66478, "ELEMENT_SET_NO": 999, "REV_AT_EPOCH": 509, "BSTAR": 0.0021459, "MEAN_MOTION_DOT": 0.00127763, "MEAN_MOTION_DDOT": 0}, "tle": {"line1": "1 66478U 25262Y   25343.70635234  .00127763  00000+0  21459-2 0  9993", "line2": "2 66478  43.0010  88.7576 0001509 278.6831  81.3858 15.50609402  5091"}}, "geometry": {"type": "Point", "coordinates": [-78.44583619202592, -14.740814415414675]}}, {"type": "Feature", "properties": {"norad_id": 66479, "name": "STARLINK-35581", "group": "last-30-days", "lat": -12.2037377111807, "lon": -81.41616123991653, "alt_km": 415.50999202282037, "timestamp": "2025-12-10T07:43:53.548446+00:00", "meta": {"OBJECT_NAME": "STARLINK-35581", "OBJECT_ID": "2025-262Z", "EPOCH": "2025-12-09T16:58:07.905216", "MEAN_MOTION": 15.50587074, "ECCENTRICITY": 0.00014, "INCLINATION": 43.0008, "RA_OF_ASC_NODE": 88.7631, "ARG_OF_PERICENTER": 270.6603, "MEAN_ANOMALY": 89.4097, "EPHEMERIS_TYPE": 0, "CLASSIFICATION_TYPE": "U", "NORAD_CAT_ID": 66479, "ELEMENT_SET_NO": 999, "REV_AT_EPOCH": 509, "BSTAR": 0.0023334, "MEAN_MOTION_DOT": 0.00139045, "MEAN_MOTION_DDOT": 0}, "tle": {"line1": "1 66479U 25262Z   25343.70703594  .00139045  00000+0  23334-2 0  9999", "line2": "2 66479  43.0008  88.7631 0001400 270.6603  89.4097 15.50587074  5094"}}, "geometry": {"type": "Point", "coordinates": [-81.41616123991653, -12.2037377111807]}}, {"type": "Feature", "properties": {"norad_id": 66480, "name": "STARLINK-35670", "group": "last-30-days", "lat": -15.971561012673602, "lon": -76.96426128486732, "alt_km": 416.0595124538677, "timestamp": "2025-12-10T07:43:53.548459+00:00", "meta": {"OBJECT_NAME": "STARLINK-35670", "OBJECT_ID": "2025-262AA", "EPOCH": "2025-12-09T16:56:39.028128", "MEAN_MOTION": 15.50609905, "ECCENTRICITY": 0.0001525, "INCLINATION": 43.0006, "RA_OF_ASC_NODE": 88.7544, "ARG_OF_PERICENTER": 283.202, "MEAN_ANOMALY": 76.867, "EPHEMERIS_TYPE": 0, "CLASSIFICATION_TYPE": "U", "NORAD_CAT_ID": 66480, "ELEMENT_SET_NO": 999, "REV_AT_EPOCH": 509, "BSTAR": 0.0016582, "MEAN_MOTION_DOT": 0.00098275, "MEAN_MOTION_DDOT": 0}, "tle": {"line1": "1 66480U 25262AA  25343.70600727  .00098275  00000+0  16582-2 0  9991", "line2": "2 66480  43.0006  88.7544 0001525 283.2020  76.8670 15.50609905  5093"}}, "geometry": {"type": "Point", "coordinates": [-76.96426128486732, -15.971561012673602]}}, {"type": "Feature", "properties": {"norad_id": 66481, "name": "STARLINK-35698", "group": "last-30-days", "lat": -17.16901426350434, "lon": -75.49245623280218, "alt_km": 416.08650461326306, "timestamp": "2025-12-10T07:43:53.548469+00:00", "meta": {"OBJECT_NAME": "STARLINK-35698", "OBJECT_ID": "2025-262AB", "EPOCH": "2025-12-09T18:28:54.950016", "MEAN_MOTION": 15.50604037, "ECCENTRICITY": 0.0001521, "INCLINATION": 43.0001, "RA_OF_ASC_NODE": 88.3747, "ARG_OF_PERICENTER": 275.7542, "MEAN_ANOMALY": 84.3145, "EPHEMERIS_TYPE": 0, "CLASSIFICATION_TYPE": "U", "NORAD_CAT_ID": 66481, "ELEMENT_SET_NO": 999, "REV_AT_EPOCH": 510, "BSTAR": 0.0015064, "MEAN_MOTION_DOT": 0.00089124, "MEAN_MOTION_DDOT": 0}, "tle": {"line1": "1 66481U 25262AB  25343.77008044  .00089124  00000+0  15064-2 0  9990", "line2": "2 66481  43.0001  88.3747 0001521 275.7542  84.3145 15.50604037  5105"}}, "geometry": {"type": "Point", "coordinates": [-75.49245623280218, -17.16901426350434]}}, {"type": "Feature", "properties": {"norad_id": 66482, "name": "STARLINK-35648", "group": "last-30-days", "lat": -18.39815320864316, "lon": -73.94809506570212, "alt_km": 416.0751219979056, "timestamp": "2025-12-10T07:43:53.548478+00:00", "meta": {"OBJECT_NAME": "STARLINK-35648", "OBJECT_ID": "2025-262AC", "EPOCH": "2025-12-09T18:28:25.260384", "MEAN_MOTION": 15.50603203, "ECCENTRICITY": 0.0001397, "INCLINATION": 43.0004, "RA_OF_ASC_NODE": 88.3717, "ARG_OF_PERICENTER": 267.5657, "MEAN_ANOMALY": 92.5044, "EPHEMERIS_TYPE": 0, "CLASSIFICATION_TYPE": "U", "NORAD_CAT_ID": 66482, "ELEMENT_SET_NO": 999, "REV_AT_EPOCH": 494, "BSTAR": 0.0014865, "MEAN_MOTION_DOT": 0.00087927, "MEAN_MOTION_DDOT": 0}, "tle": {"line1": "1 66482U 25262AC  25343.76973681  .00087927  00000+0  14865-2 0  9995", "line2": "2 66482  43.0004  88.3717 0001397 267.5657  92.5044 15.50603203  4947"}}, "geometry": {"type": "Point", "coordinates": [-73.94809506570212, -18.39815320864316]}}, {"type": "Feature", "properties": {"norad_id": 66483, "name": "STARLINK-35654", "group": "last-30-days", "lat": -19.618735419585487, "lon": -72.37590719868467, "alt_km": 416.4195719155214, "timestamp": "2025-12-10T07:43:53.548489+00:00", "meta": {"OBJECT_NAME": "STARLINK-35654", "OBJECT_ID": "2025-262AD", "EPOCH": "2025-12-09T18:27:55.708128", "MEAN_MOTION": 15.50607552, "ECCENTRICITY": 0.0001469, "INCLINATION": 43.0002, "RA_OF_ASC_NODE": 88.3686, "ARG_OF_PERICENTER": 288.036, "MEAN_ANOMALY": 72.034, "EPHEMERIS_TYPE": 0, "CLASSIFICATION_TYPE": "U", "NORAD_CAT_ID": 66483, "ELEMENT_SET_NO": 999, "REV_AT_EPOCH": 510, "BSTAR": 0.0016453, "MEAN_MOTION_DOT": 0.00097488, "MEAN_MOTION_DDOT": 0}, "tle": {"line1": "1 66483U 25262AD  25343.76939477  .00097488  00000+0  16453-2 0  9999", "line2": "2 66483  43.0002  88.3686 0001469 288.0360  72.0340 15.50607552  5102"}}, "geometry": {"type": "Point", "coordinates": [-72.37590719868467, -19.618735419585487]}}, {"type": "Feature", "properties": {"norad_id": 66484, "name": "STARLINK-35371", "group": "last-30-days", "lat": -20.813087035809474, "lon": -70.79495359590074, "alt_km": 416.5122324853819, "timestamp": "2025-12-10T07:43:53.548499+00:00", "meta": {"OBJECT_NAME": "STARLINK-35371", "OBJECT_ID": "2025-262AE", "EPOCH": "2025-12-09T18:27:26.135136", "MEAN_MOTION": 15.50607729, "ECCENTRICITY": 0.0001341, "INCLINATION": 43.0001, "RA_OF_ASC_NODE": 88.3668, "ARG_OF_PERICENTER": 287.1323, "MEAN_ANOMALY": 72.939, "EPHEMERIS_TYPE": 0, "CLASSIFICATION_TYPE": "U", "NORAD_CAT_ID": 66484, "ELEMENT_SET_NO": 999, "REV_AT_EPOCH": 510, "BSTAR": 0.0015273, "MEAN_MOTION_DOT": 0.00090394, "MEAN_MOTION_DDOT": 0}, "tle": {"line1": "1 66484U 25262AE  25343.76905249  .00090394  00000+0  15273-2 0  9998", "line2": "2 66484  43.0001  88.3668 0001341 287.1323  72.9390 15.50607729  5100"}}, "geometry": {"type": "Point", "coordinates": [-70.79495359590074, -20.813087035809474]}}]}